{
  "type": "FeatureCollection",
  "features": [
    {
      "type": "Feature",
      "properties": {
        "norad_id": 2807,
        "name": "OPS 7218 (TRANSIT 16)",
        "group": "nnss",
        "lat": 28.445220096253124,
        "lon": -5.993429428058967,
        "alt_km": 1062.7589276354056,
        "timestamp": "2025-12-18T08:58:43.679999+00:00",
        "meta_object_name": "OPS 7218 (TRANSIT 16)",
        "meta_object_id": "1967-048A",
        "meta_epoch": "2025-12-17T22:29:07.650240",
        "meta_mean_motion": 13.50723303,
        "meta_eccentricity": 0.00221131,
        "meta_inclination": 89.6731,
        "meta_ra_of_asc_node": 353.8438,
        "meta_arg_of_pericenter": 100.1963,
        "meta_mean_anomaly": 323.8094,
        "meta_ephemeris_type": 0,
        "meta_classification_type": "U",
        "meta_norad_cat_id": 2807,
        "meta_element_set_no": 999,
        "meta_rev_at_epoch": 88346,
        "meta_bstar": 0.00016533588,
        "meta_mean_motion_dot": 1.17e-06,
        "meta_mean_motion_ddot": 0,
        "tle_line1": "1 02807U 67048A   25351.93689410  .00000117  00000+0  16534-3 0  9998",
        "tle_line2": "2 02807  89.6731 353.8438 0022113 100.1963 323.8094 13.50723303883461"
      },
      "geometry": {
        "type": "Point",
        "coordinates": [
          -5.993429428058967,
          28.445220096253124
        ]
      }
    },
    {
      "type": "Feature",
      "properties": {
        "norad_id": 2965,
        "name": "OPS 4947 (TRANSIT 17)",
        "group": "nnss",
        "lat": 31.797365215925442,
        "lon": -156.45968686867144,
        "alt_km": 1045.5827694444952,
        "timestamp": "2025-12-18T08:58:43.680021+00:00",
        "meta_object_name": "OPS 4947 (TRANSIT 17)",
        "meta_object_id": "1967-092A",
        "meta_epoch": "2025-12-17T20:40:53.620608",
        "meta_mean_motion": 13.53454821,
        "meta_eccentricity": 0.00465171,
        "meta_inclination": 89.2492,
        "meta_ra_of_asc_node": 24.0451,
        "meta_arg_of_pericenter": 219.2246,
        "meta_mean_anomaly": 314.3062,
        "meta_ephemeris_type": 0,
        "meta_classification_type": "U",
        "meta_norad_cat_id": 2965,
        "meta_element_set_no": 999,
        "meta_rev_at_epoch": 87166,
        "meta_bstar": 0.00021058008,
        "meta_mean_motion_dot": 1.54e-06,
        "meta_mean_motion_ddot": 0,
        "tle_line1": "1 02965U 67092A   25351.86173172  .00000154  00000+0  21058-3 0  9995",
        "tle_line2": "2 02965  89.2492  24.0451 0046517 219.2246 314.3062 13.53454821871666"
      },
      "geometry": {
        "type": "Point",
        "coordinates": [
          -156.45968686867144,
          31.797365215925442
        ]
      }
    },
    {
      "type": "Feature",
      "properties": {
        "norad_id": 3133,
        "name": "OPS 7034 (TRANSIT 18)",
        "group": "nnss",
        "lat": -80.37456510450387,
        "lon": 93.48842573016127,
        "alt_km": 1090.2283151347237,
        "timestamp": "2025-12-18T08:58:43.680035+00:00",
        "meta_object_name": "OPS 7034 (TRANSIT 18)",
        "meta_object_id": "1968-012A",
        "meta_epoch": "2025-12-17T17:47:04.342272",
        "meta_mean_motion": 13.51566828,
        "meta_eccentricity": 0.00743372,
        "meta_inclination": 90.0282,
        "meta_ra_of_asc_node": 273.653,
        "meta_arg_of_pericenter": 154.6929,
        "meta_mean_anomaly": 266.273,
        "meta_ephemeris_type": 0,
        "meta_classification_type": "U",
        "meta_norad_cat_id": 3133,
        "meta_element_set_no": 999,
        "meta_rev_at_epoch": 56986,
        "meta_bstar": 0.00013824909,
        "meta_mean_motion_dot": 1.01e-06,
        "meta_mean_motion_ddot": 0,
        "tle_line1": "1 03133U 68012A   25351.74102248  .00000101  00000+0  13825-3 0  9994",
        "tle_line2": "2 03133  90.0282 273.6530 0074337 154.6929 266.2730 13.51566828569864"
      },
      "geometry": {
        "type": "Point",
        "coordinates": [
          93.48842573016127,
          -80.37456510450387
        ]
      }
    },
    {
      "type": "Feature",
      "properties": {
        "norad_id": 4507,
        "name": "NNSS 19 (TRANSIT 19)",
        "group": "nnss",
        "lat": -44.47070336704538,
        "lon": 54.53262814950177,
        "alt_km": 995.6786991377367,
        "timestamp": "2025-12-18T08:58:43.680047+00:00",
        "meta_object_name": "NNSS 19 (TRANSIT 19)",
        "meta_object_id": "1970-067A",
        "meta_epoch": "2025-12-17T17:38:16.057248",
        "meta_mean_motion": 13.51316094,
        "meta_eccentricity": 0.01703061,
        "meta_inclination": 90.0052,
        "meta_ra_of_asc_node": 234.5374,
        "meta_arg_of_pericenter": 278.7698,
        "meta_mean_anomaly": 79.42,
        "meta_ephemeris_type": 0,
        "meta_classification_type": "U",
        "meta_norad_cat_id": 4507,
        "meta_element_set_no": 999,
        "meta_rev_at_epoch": 72289,
        "meta_bstar": 0.00012401453,
        "meta_mean_motion_dot": 9.6e-07,
        "meta_mean_motion_ddot": 0,
        "tle_line1": "1 04507U 70067A   25351.73490807  .00000096  00000+0  12401-3 0  9995",
        "tle_line2": "2 04507  90.0052 234.5374 0170306 278.7698  79.4200 13.51316094722899"
      },
      "geometry": {
        "type": "Point",
        "coordinates": [
          54.53262814950177,
          -44.47070336704538
        ]
      }
    },
    {
      "type": "Feature",
      "properties": {
        "norad_id": 6909,
        "name": "NNSS 20 (TRANSIT 20)",
        "group": "nnss",
        "lat": -15.74551565997378,
        "lon": -105.0708019738732,
        "alt_km": 972.0160645318383,
        "timestamp": "2025-12-18T08:58:43.680058+00:00",
        "meta_object_name": "NNSS 20 (TRANSIT 20)",
        "meta_object_id": "1973-081A",
        "meta_epoch": "2025-12-17T19:02:46.423104",
        "meta_mean_motion": 13.71436716,
        "meta_eccentricity": 0.01565258,
        "meta_inclination": 89.8562,
        "meta_ra_of_asc_node": 254.9785,
        "meta_arg_of_pericenter": 63.3548,
        "meta_mean_anomaly": 298.355,
        "meta_ephemeris_type": 0,
        "meta_classification_type": "U",
        "meta_norad_cat_id": 6909,
        "meta_element_set_no": 999,
        "meta_rev_at_epoch": 80430,
        "meta_bstar": 0.00023002948,
        "meta_mean_motion_dot": 2.37e-06,
        "meta_mean_motion_ddot": 0,
        "tle_line1": "1 06909U 73081A   25351.79359286  .00000237  00000+0  23003-3 0  9990",
        "tle_line2": "2 06909  89.8562 254.9785 0156525  63.3548 298.3550 13.71436716804303"
      },
      "geometry": {
        "type": "Point",
        "coordinates": [
          -105.0708019738732,
          -15.74551565997378
        ]
      }
    },
    {
      "type": "Feature",
      "properties": {
        "norad_id": 10457,
        "name": "TRANSAT",
        "group": "nnss",
        "lat": -3.042790130801235,
        "lon": -101.58373772328841,
        "alt_km": 1060.4679186673984,
        "timestamp": "2025-12-18T08:58:43.680069+00:00",
        "meta_object_name": "TRANSAT",
        "meta_object_id": "1977-106A",
        "meta_epoch": "2025-12-17T18:26:08.490048",
        "meta_mean_motion": 13.48944321,
        "meta_eccentricity": 0.00258702,
        "meta_inclination": 89.6481,
        "meta_ra_of_asc_node": 78.419,
        "meta_arg_of_pericenter": 175.0435,
        "meta_mean_anomaly": 306.9057,
        "meta_ephemeris_type": 0,
        "meta_classification_type": "U",
        "meta_norad_cat_id": 10457,
        "meta_element_set_no": 999,
        "meta_rev_at_epoch": 36811,
        "meta_bstar": 9.4898831e-05,
        "meta_mean_motion_dot": 7e-07,
        "meta_mean_motion_ddot": 0,
        "tle_line1": "1 10457U 77106A   25351.76815382  .00000070  00000+0  94899-4 0  9993",
        "tle_line2": "2 10457  89.6481  78.4190 0025870 175.0435 306.9057 13.48944321368119"
      },
      "geometry": {
        "type": "Point",
        "coordinates": [
          -101.58373772328841,
          -3.042790130801235
        ]
      }
    },
    {
      "type": "Feature",
      "properties": {
        "norad_id": 12458,
        "name": "NOVA 1",
        "group": "nnss",
        "lat": -75.5445873614257,
        "lon": 90.73423883893692,
        "alt_km": 1191.28029343684,
        "timestamp": "2025-12-18T08:58:43.680080+00:00",
        "meta_object_name": "NOVA 1",
        "meta_object_id": "1981-044A",
        "meta_epoch": "2025-12-17T21:16:28.309728",
        "meta_mean_motion": 13.23278933,
        "meta_eccentricity": 0.00159028,
        "meta_inclination": 89.8528,
        "meta_ra_of_asc_node": 91.3125,
        "meta_arg_of_pericenter": 91.3703,
        "meta_mean_anomaly": 31.3043,
        "meta_ephemeris_type": 0,
        "meta_classification_type": "U",
        "meta_norad_cat_id": 12458,
        "meta_element_set_no": 999,
        "meta_rev_at_epoch": 15254,
        "meta_bstar": 8.8572025e-05,
        "meta_mean_motion_dot": 4.7e-07,
        "meta_mean_motion_ddot": 0,
        "tle_line1": "1 12458U 81044A   25351.88643877  .00000047  00000+0  88572-4 0  9998",
        "tle_line2": "2 12458  89.8528  91.3125 0015902  91.3703  31.3043 13.23278933152545"
      },
      "geometry": {
        "type": "Point",
        "coordinates": [
          90.73423883893692,
          -75.5445873614257
        ]
      }
    }
  ]
}